start=new Date('2022-07-10T00:00:00.000Z').valueOf();
sats=[{"SITE":"AFETR","OBJECT_ID":"2021-038S","OBJECT_NAME":"STARLINK-2641","OBJECT_TYPE":"PAYLOAD","TIME_SYSTEM":"UTC","MEAN_ELEMENT_THEORY":"SGP4","ECCENTRICITY":"0.00015710","TLE_LINE1":"1 48369U 21038S   22190.42395734 -.00000600  00000-0 -21365-4 0  9994","MEAN_MOTION_DDOT":"0.0000000000000","RCS_SIZE":"LARGE","MEAN_MOTION":"15.06408345","COUNTRY_CODE":"US","FILE":"3510582","MEAN_ANOMALY":"305.0876","NORAD_CAT_ID":"48369","ELEMENT_SET_NO":"999","RA_OF_ASC_NODE":"243.8262","DECAY_DATE":null,"BSTAR":"-0.00002136500000","SEMIMAJOR_AXIS":"6925.323","LAUNCH_DATE":"2021-05-04","CLASSIFICATION_TYPE":"U","MEAN_MOTION_DOT":"-0.00000600","EPHEMERIS_TYPE":"0","PERIOD":"95.592","TLE_LINE2":"2 48369  53.0539 243.8262 0001571  55.0260 305.0876 15.06408345 65305","INCLINATION":"53.0539","EPOCH":"2022-07-09T10:10:29.914176","GP_ID":"207730566","ARG_OF_PERICENTER":"55.0260","REV_AT_EPOCH":"6530","CENTER_NAME":"EARTH","PERIAPSIS":"546.100","REF_FRAME":"TEME","APOAPSIS":"548.276"},{"ECCENTRICITY":"0.00015570","MEAN_ELEMENT_THEORY":"SGP4","OBJECT_TYPE":"PAYLOAD","TIME_SYSTEM":"UTC","OBJECT_NAME":"STARLINK-2621","OBJECT_ID":"2021-038T","SITE":"AFETR","ELEMENT_SET_NO":"999","NORAD_CAT_ID":"48370","FILE":"3510681","MEAN_ANOMALY":"297.7284","COUNTRY_CODE":"US","MEAN_MOTION":"15.06394313","MEAN_MOTION_DDOT":"0.0000000000000","RCS_SIZE":"LARGE","TLE_LINE1":"1 48370U 21038T   22190.55298337 -.00001854  00000-0 -10563-3 0  9990","MEAN_MOTION_DOT":"-0.00001854","CLASSIFICATION_TYPE":"U","LAUNCH_DATE":"2021-05-04","SEMIMAJOR_AXIS":"6925.366","BSTAR":"-0.00010563000000","DECAY_DATE":null,"RA_OF_ASC_NODE":"243.2450","APOAPSIS":"548.309","REF_FRAME":"TEME","PERIAPSIS":"546.153","REV_AT_EPOCH":"6532","CENTER_NAME":"EARTH","ARG_OF_PERICENTER":"62.3863","GP_ID":"207784313","INCLINATION":"53.0540","TLE_LINE2":"2 48370  53.0540 243.2450 0001557  62.3863 297.7284 15.06394313 65327","EPOCH":"2022-07-09T13:16:17.763168","PERIOD":"95.593","EPHEMERIS_TYPE":"0"},{"REV_AT_EPOCH":"6532","CENTER_NAME":"EARTH","PERIAPSIS":"546.316","REF_FRAME":"TEME","APOAPSIS":"548.136","EPHEMERIS_TYPE":"0","PERIOD":"95.592","TLE_LINE2":"2 48371  53.0539 243.2691 0001314  59.2598 300.8520 15.06396061 65325","INCLINATION":"53.0539","EPOCH":"2022-07-09T13:10:59.621088","GP_ID":"207784563","ARG_OF_PERICENTER":"59.2598","LAUNCH_DATE":"2021-05-04","SEMIMAJOR_AXIS":"6925.361","CLASSIFICATION_TYPE":"U","MEAN_MOTION_DOT":"-0.00000071","RA_OF_ASC_NODE":"243.2691","DECAY_DATE":null,"BSTAR":"0.00001412700000","NORAD_CAT_ID":"48371","ELEMENT_SET_NO":"999","TLE_LINE1":"1 48371U 21038U   22190.54930117 -.00000071  00000-0  14127-4 0  9999","MEAN_MOTION_DDOT":"0.0000000000000","RCS_SIZE":"LARGE","MEAN_MOTION":"15.06396061","COUNTRY_CODE":"US","FILE":"3510681","MEAN_ANOMALY":"300.8520","MEAN_ELEMENT_THEORY":"SGP4","ECCENTRICITY":"0.00013140","SITE":"AFETR","OBJECT_ID":"2021-038U","OBJECT_NAME":"STARLINK-2589","OBJECT_TYPE":"PAYLOAD","TIME_SYSTEM":"UTC"},{"SITE":"AFETR","OBJECT_ID":"2021-038V","OBJECT_NAME":"STARLINK-2572","OBJECT_TYPE":"PAYLOAD","TIME_SYSTEM":"UTC","MEAN_ELEMENT_THEORY":"SGP4","ECCENTRICITY":"0.00017150","TLE_LINE1":"1 48372U 21038V   22190.54560652 -.00001121  00000-0 -56372-4 0  9999","MEAN_MOTION_DDOT":"0.0000000000000","RCS_SIZE":"LARGE","COUNTRY_CODE":"US","MEAN_MOTION":"15.06400487","FILE":"3510582","MEAN_ANOMALY":"306.6172","NORAD_CAT_ID":"48372","ELEMENT_SET_NO":"999","RA_OF_ASC_NODE":"243.2842","DECAY_DATE":null,"BSTAR":"-0.00005637200000","LAUNCH_DATE":"2021-05-04","SEMIMAJOR_AXIS":"6925.347","CLASSIFICATION_TYPE":"U","MEAN_MOTION_DOT":"-0.00001121","EPHEMERIS_TYPE":"0","PERIOD":"95.592","TLE_LINE2":"2 48372  53.0534 243.2842 0001715  53.4975 306.6172 15.06400487 65324","INCLINATION":"53.0534","EPOCH":"2022-07-09T13:05:40.403328","GP_ID":"207732317","ARG_OF_PERICENTER":"53.4975","REV_AT_EPOCH":"6532","CENTER_NAME":"EARTH","PERIAPSIS":"546.024","APOAPSIS":"548.400","REF_FRAME":"TEME"},{"TLE_LINE1":"1 48373U 21038W   22190.60827115  .00001367  00000-0  11066-3 0  9997","RCS_SIZE":"LARGE","MEAN_MOTION_DDOT":"0.0000000000000","COUNTRY_CODE":"US","MEAN_MOTION":"15.06403012","MEAN_ANOMALY":"280.5796","FILE":"3510681","NORAD_CAT_ID":"48373","ELEMENT_SET_NO":"999","SITE":"AFETR","OBJECT_ID":"2021-038W","OBJECT_NAME":"STARLINK-2609","TIME_SYSTEM":"UTC","OBJECT_TYPE":"PAYLOAD","MEAN_ELEMENT_THEORY":"SGP4","ECCENTRICITY":"0.00012840","PERIOD":"95.592","EPHEMERIS_TYPE":"0","EPOCH":"2022-07-09T14:35:54.627360","INCLINATION":"53.0523","TLE_LINE2":"2 48373  53.0523 242.9937 0001284  79.5338 280.5796 15.06403012 65337","GP_ID":"207783562","ARG_OF_PERICENTER":"79.5338","CENTER_NAME":"EARTH","REV_AT_EPOCH":"6533","PERIAPSIS":"546.315","REF_FRAME":"TEME","APOAPSIS":"548.094","RA_OF_ASC_NODE":"242.9937","DECAY_DATE":null,"BSTAR":"0.00011066000000","LAUNCH_DATE":"2021-05-04","SEMIMAJOR_AXIS":"6925.339","CLASSIFICATION_TYPE":"U","MEAN_MOTION_DOT":"0.00001367"},{"MEAN_MOTION":"15.06410925","COUNTRY_CODE":"US","MEAN_ANOMALY":"289.4698","FILE":"3510582","TLE_LINE1":"1 48374U 21038X   22190.47093441 -.00000902  00000-0 -41667-4 0  9997","RCS_SIZE":"LARGE","MEAN_MOTION_DDOT":"0.0000000000000","ELEMENT_SET_NO":"999","NORAD_CAT_ID":"48374","OBJECT_NAME":"STARLINK-2604","TIME_SYSTEM":"UTC","OBJECT_TYPE":"PAYLOAD","SITE":"AFETR","OBJECT_ID":"2021-038X","ECCENTRICITY":"0.00013810","MEAN_ELEMENT_THEORY":"SGP4","GP_ID":"207731316","ARG_OF_PERICENTER":"70.6440","PERIOD":"95.591","EPHEMERIS_TYPE":"0","EPOCH":"2022-07-09T11:18:08.733024","INCLINATION":"53.0530","TLE_LINE2":"2 48374  53.0530 243.5982 0001381  70.6440 289.4698 15.06410925 65315","REF_FRAME":"TEME","APOAPSIS":"548.136","CENTER_NAME":"EARTH","REV_AT_EPOCH":"6531","PERIAPSIS":"546.224","DECAY_DATE":null,"BSTAR":"-0.00004166700000","RA_OF_ASC_NODE":"243.5982","CLASSIFICATION_TYPE":"U","MEAN_MOTION_DOT":"-0.00000902","SEMIMAJOR_AXIS":"6925.315","LAUNCH_DATE":"2021-05-04"},{"ELEMENT_SET_NO":"999","NORAD_CAT_ID":"48375","MEAN_ANOMALY":"285.5873","FILE":"3510582","COUNTRY_CODE":"US","MEAN_MOTION":"15.06398501","RCS_SIZE":"LARGE","MEAN_MOTION_DDOT":"0.0000000000000","TLE_LINE1":"1 48375U 21038Y   22190.46819290 -.00006187  00000-0 -39685-3 0  9992","ECCENTRICITY":"0.00014980","MEAN_ELEMENT_THEORY":"SGP4","TIME_SYSTEM":"UTC","OBJECT_TYPE":"PAYLOAD","OBJECT_NAME":"STARLINK-2603","SITE":"AFETR","OBJECT_ID":"2021-038Y","APOAPSIS":"548.256","REF_FRAME":"TEME","PERIAPSIS":"546.181","CENTER_NAME":"EARTH","REV_AT_EPOCH":"6531","ARG_OF_PERICENTER":"74.5281","GP_ID":"207732067","EPOCH":"2022-07-09T11:14:11.866560","INCLINATION":"53.0521","TLE_LINE2":"2 48375  53.0521 243.6277 0001498  74.5281 285.5873 15.06398501 65316","EPHEMERIS_TYPE":"0","PERIOD":"95.592","MEAN_MOTION_DOT":"-0.00006187","CLASSIFICATION_TYPE":"U","LAUNCH_DATE":"2021-05-04","SEMIMAJOR_AXIS":"6925.353","BSTAR":"-0.00039685000000","DECAY_DATE":null,"RA_OF_ASC_NODE":"243.6277"},{"PERIAPSIS":"546.235","CENTER_NAME":"EARTH","REV_AT_EPOCH":"6591","APOAPSIS":"548.164","REF_FRAME":"TEME","EPOCH":"2022-07-09T12:44:25.874592","INCLINATION":"53.0538","TLE_LINE2":"2 48376  53.0538 243.3526 0001393  76.0328 284.0816 15.06404596 65911","PERIOD":"95.592","EPHEMERIS_TYPE":"0","ARG_OF_PERICENTER":"76.0328","GP_ID":"207761600","SEMIMAJOR_AXIS":"6925.334","LAUNCH_DATE":"2021-05-04","MEAN_MOTION_DOT":"-0.00001410","CLASSIFICATION_TYPE":"U","RA_OF_ASC_NODE":"243.3526","BSTAR":"-0.00007574000000","DECAY_DATE":null,"NORAD_CAT_ID":"48376","ELEMENT_SET_NO":"999","RCS_SIZE":"LARGE","MEAN_MOTION_DDOT":"0.0000000000000","TLE_LINE1":"1 48376U 21038Z   22190.53085503 -.00001410  00000-0 -75740-4 0  9990","MEAN_ANOMALY":"284.0816","FILE":"3510639","COUNTRY_CODE":"US","MEAN_MOTION":"15.06404596","MEAN_ELEMENT_THEORY":"SGP4","ECCENTRICITY":"0.00013930","OBJECT_ID":"2021-038Z","SITE":"AFETR","TIME_SYSTEM":"UTC","OBJECT_TYPE":"PAYLOAD","OBJECT_NAME":"STARLINK-2610"},{"TIME_SYSTEM":"UTC","OBJECT_TYPE":"PAYLOAD","OBJECT_NAME":"STARLINK-2499","OBJECT_ID":"2021-038AA","SITE":"AFETR","ECCENTRICITY":"0.00015290","MEAN_ELEMENT_THEORY":"SGP4","MEAN_ANOMALY":"298.2077","FILE":"3510681","COUNTRY_CODE":"US","MEAN_MOTION":"15.06396562","RCS_SIZE":"LARGE","MEAN_MOTION_DDOT":"0.0000000000000","TLE_LINE1":"1 48377U 21038AA  22190.65986600 -.00003571  00000-0 -22100-3 0  9993","ELEMENT_SET_NO":"999","NORAD_CAT_ID":"48377","BSTAR":"-0.00022100000000","DECAY_DATE":null,"RA_OF_ASC_NODE":"242.7580","MEAN_MOTION_DOT":"-0.00003571","CLASSIFICATION_TYPE":"U","LAUNCH_DATE":"2021-05-04","SEMIMAJOR_AXIS":"6925.359","ARG_OF_PERICENTER":"61.9066","GP_ID":"207783063","EPOCH":"2022-07-09T15:50:12.422400","INCLINATION":"53.0524","TLE_LINE2":"2 48377  53.0524 242.7580 0001529  61.9066 298.2077 15.06396562 65349","PERIOD":"95.592","EPHEMERIS_TYPE":"0","REF_FRAME":"TEME","APOAPSIS":"548.283","PERIAPSIS":"546.165","CENTER_NAME":"EARTH","REV_AT_EPOCH":"6534"},{"RA_OF_ASC_NODE":"243.0858","DECAY_DATE":null,"BSTAR":"-0.00017007000000","SEMIMAJOR_AXIS":"6925.348","LAUNCH_DATE":"2021-05-04","CLASSIFICATION_TYPE":"U","MEAN_MOTION_DOT":"-0.00002814","PERIOD":"95.592","EPHEMERIS_TYPE":"0","INCLINATION":"53.0536","TLE_LINE2":"2 48378  53.0536 243.0858 0001576  72.6136 287.5025 15.06400303 65336","EPOCH":"2022-07-09T14:09:21.507264","GP_ID":"207784314","ARG_OF_PERICENTER":"72.6136","REV_AT_EPOCH":"6533","CENTER_NAME":"EARTH","PERIAPSIS":"546.121","APOAPSIS":"548.304","REF_FRAME":"TEME","OBJECT_ID":"2021-038AB","SITE":"AFETR","OBJECT_NAME":"STARLINK-2526","OBJECT_TYPE":"PAYLOAD","TIME_SYSTEM":"UTC","MEAN_ELEMENT_THEORY":"SGP4","ECCENTRICITY":"0.00015760","TLE_LINE1":"1 48378U 21038AB  22190.58983226 -.00002814  00000-0 -17007-3 0  9996","MEAN_MOTION_DDOT":"0.0000000000000","RCS_SIZE":"LARGE","COUNTRY_CODE":"US","MEAN_MOTION":"15.06400303","FILE":"3510681","MEAN_ANOMALY":"287.5025","NORAD_CAT_ID":"48378","ELEMENT_SET_NO":"999"}];
